<?xml version="1.0" encoding="UTF-8"?>
<kml xmlns="http://www.opengis.net/kml/2.2" xmlns:gx="http://www.google.com/kml/ext/2.2" xmlns:kml="http://www.opengis.net/kml/2.2" xmlns:atom="http://www.w3.org/2005/Atom">
<Document>
	<name>Wanneroo</name>
	<gx:CascadingStyle kml:id="__managed_style_2474C30DF138997FB1E8">
		<Style>
			<IconStyle>
				<scale>1.2</scale>
				<Icon>
					<href>https://earth.google.com/earth/document/icon?color=1976d2&amp;id=2000&amp;scale=4</href>
				</Icon>
				<hotSpot x="64" y="128" xunits="pixels" yunits="insetPixels"/>
			</IconStyle>
			<LabelStyle>
			</LabelStyle>
			<LineStyle>
				<color>ff2dc0fb</color>
				<width>4</width>
			</LineStyle>
			<PolyStyle>
				<color>40ffffff</color>
			</PolyStyle>
			<BalloonStyle>
				<displayMode>hide</displayMode>
			</BalloonStyle>
		</Style>
	</gx:CascadingStyle>
	<gx:CascadingStyle kml:id="__managed_style_108C7BB5E138997FB1E8">
		<Style>
			<IconStyle>
				<Icon>
					<href>https://earth.google.com/earth/document/icon?color=1976d2&amp;id=2000&amp;scale=4</href>
				</Icon>
				<hotSpot x="64" y="128" xunits="pixels" yunits="insetPixels"/>
			</IconStyle>
			<LabelStyle>
			</LabelStyle>
			<LineStyle>
				<color>ff2dc0fb</color>
				<width>2.66667</width>
			</LineStyle>
			<PolyStyle>
				<color>40ffffff</color>
			</PolyStyle>
			<BalloonStyle>
				<displayMode>hide</displayMode>
			</BalloonStyle>
		</Style>
	</gx:CascadingStyle>
	<StyleMap id="__managed_style_0702990A2C38997FB1E8">
		<Pair>
			<key>normal</key>
			<styleUrl>#__managed_style_108C7BB5E138997FB1E8</styleUrl>
		</Pair>
		<Pair>
			<key>highlight</key>
			<styleUrl>#__managed_style_2474C30DF138997FB1E8</styleUrl>
		</Pair>
	</StyleMap>
	<Placemark id="0B2590B87638997FB1D6">
		<name>StartFinish</name>
		<LookAt>
			<longitude>115.7864098705102</longitude>
			<latitude>-31.66433075504661</latitude>
			<altitude>74.89212591937111</altitude>
			<heading>68.93109754149607</heading>
			<tilt>2.381898685933767</tilt>
			<gx:fovy>35</gx:fovy>
			<range>163.3652694585908</range>
			<altitudeMode>absolute</altitudeMode>
		</LookAt>
		<styleUrl>#__managed_style_0702990A2C38997FB1E8</styleUrl>
		<LineString>
			<coordinates>
				115.7863013154122,-31.66416353021594,0 115.7864928902992,-31.66416871602571,0 
			</coordinates>
		</LineString>
	</Placemark>
	<Placemark id="045B9A038C389983E857">
		<name>PitExit</name>
		<LookAt>
			<longitude>115.7868460556727</longitude>
			<latitude>-31.6632873103933</latitude>
			<altitude>75.14568553052861</altitude>
			<heading>66.57261688079214</heading>
			<tilt>4.547921113844659</tilt>
			<gx:fovy>35</gx:fovy>
			<range>237.7563704948989</range>
			<altitudeMode>absolute</altitudeMode>
		</LookAt>
		<styleUrl>#__managed_style_0702990A2C38997FB1E8</styleUrl>
		<LineString>
			<coordinates>
				115.7865703665766,-31.6630247286147,0 115.7867948043336,-31.66300031502335,0 
			</coordinates>
		</LineString>
	</Placemark>
	<Placemark id="0F1D007842389985DDDF">
		<name>PitEntry</name>
		<LookAt>
			<longitude>115.7866255206967</longitude>
			<latitude>-31.66490420705041</latitude>
			<altitude>74.56322667977889</altitude>
			<heading>53.78360316835091</heading>
			<tilt>0</tilt>
			<gx:fovy>35</gx:fovy>
			<range>289.7850978737188</range>
			<altitudeMode>absolute</altitudeMode>
		</LookAt>
		<styleUrl>#__managed_style_0702990A2C38997FB1E8</styleUrl>
		<LineString>
			<coordinates>
				115.7865253827996,-31.66498449171058,0 115.7866649522481,-31.6649884936894,0 
			</coordinates>
		</LineString>
	</Placemark>
	<Placemark id="08C08CF25338998BAD07">
		<name>Sector1</name>
		<LookAt>
			<longitude>115.7874342025701</longitude>
			<latitude>-31.66348456258607</latitude>
			<altitude>73.01973214342257</altitude>
			<heading>53.78349737208669</heading>
			<tilt>0</tilt>
			<gx:fovy>35</gx:fovy>
			<range>665.9634921258112</range>
			<altitudeMode>absolute</altitudeMode>
		</LookAt>
		<styleUrl>#__managed_style_0702990A2C38997FB1E8</styleUrl>
		<LineString>
			<coordinates>
				115.7876014097591,-31.66262381524675,0 115.787751836914,-31.66262025043903,0 
			</coordinates>
		</LineString>
	</Placemark>
	<Placemark id="0DB13DADB338998D0CB8">
		<name>Sector2</name>
		<LookAt>
			<longitude>115.7916356385997</longitude>
			<latitude>-31.66525702953124</latitude>
			<altitude>87.08268966440116</altitude>
			<heading>52.81075715497253</heading>
			<tilt>5.812909782933516</tilt>
			<gx:fovy>35</gx:fovy>
			<range>574.9277689508746</range>
			<altitudeMode>absolute</altitudeMode>
		</LookAt>
		<styleUrl>#__managed_style_0702990A2C38997FB1E8</styleUrl>
		<LineString>
			<coordinates>
				115.7927186350148,-31.66484287660233,0 115.7927062333537,-31.66498223043188,0 
			</coordinates>
		</LineString>
	</Placemark>
</Document>
</kml>

